CZ-2C R/B               
1 54039U 22132E   26004.95749282  .00040077  00000+0  56096-3 0  9995
2 54039  97.2939   6.6256 0018594 334.6047  25.4292 15.56500051180440
GSLV R/B                
1 54149U 22138AN  26004.99668544  .00003230  00000+0  28215-3 0  9990
2 54149  87.3822 187.6842 0022809  28.7275 331.5207 14.96281630174400
XRISM                   
1 57800U 23137A   26004.23620281  .00008808  00000+0  51354-3 0  9996
2 57800  31.0036 340.2729 0007655 113.9336 246.2105 15.10643890128032
ACS3                    
1 59588U 24077B   26005.14246105  .00020998  00000+0  17667-1 0  9996
2 59588  97.2504 320.5195 0067955 279.7752  79.5741 13.86777905 85380
SZ-21 MODULE            
1 66515U 25246C   26004.98707992  .00031246  00000+0  32469-3 0  9997
2 66515  41.4747 234.0941 0001853  45.0993 314.9997 15.63935128  8083
